{"type": "FeatureCollection", "features": [ {"type": "Feature", "properties": {"norad_id": 67131, "name": "ZIYUAN 3-04 (ZY 3-04)", "group": "last-30-days", "lat": 13.184282354226768, "lon": 71.5987046716541, "alt_km": 504.96357123873804, "timestamp": "2025-12-25T07:41:08.453125+00:00", "meta": {"OBJECT_NAME": "ZIYUAN 3-04 (ZY 3-04)", "OBJECT_ID": "2025-300A", "EPOCH": "2025-12-21T18:22:34.187808", "MEAN_MOTION": 15.21179479, "ECCENTRICITY": 0.00027623, "INCLINATION": 97.4922, "RA_OF_ASC_NODE": 69.8294, "ARG_OF_PERICENTER": 167.6924, "MEAN_ANOMALY": 192.438, "EPHEMERIS_TYPE": 0, "CLASSIFICATION_TYPE": "U", "NORAD_CAT_ID": 67131, "ELEMENT_SET_NO": 999, "REV_AT_EPOCH": 86, "BSTAR": 6.5769783e-05, "MEAN_MOTION_DOT": 1.396e-05, "MEAN_MOTION_DDOT": 0}, "tle": {"line1": "1 67131U 25300A   25355.76567347  .00001396  00000+0  65770-4 0  9990", "line2": "2 67131  97.4922  69.8294 0002762 167.6924 192.4380 15.21179479   860"}}, "geometry": {"type": "Point", "coordinates": [71.5987046716541, 13.184282354226768]}}, {"type": "Feature", "properties": {"norad_id": 67132, "name": "CZ-4B R/B", "group": "last-30-days", "lat": -51.212184208293785, "lon": 83.59059345052391, "alt_km": 287.3825931216843, "timestamp": "2025-12-25T07:41:08.453135+00:00", "meta": {"OBJECT_NAME": "CZ-4B R/B", "OBJECT_ID": "2025-300B", "EPOCH": "2025-12-18T16:13:04.609056", "MEAN_MOTION": 15.63831828, "ECCENTRICITY": 0.01741973, "INCLINATION": 97.5563, "RA_OF_ASC_NODE": 66.966, "ARG_OF_PERICENTER": 9.3582, "MEAN_ANOMALY": 351.0851, "EPHEMERIS_TYPE": 0, "CLASSIFICATION_TYPE": "U", "NORAD_CAT_ID": 67132, "ELEMENT_SET_NO": 999, "REV_AT_EPOCH": 40, "BSTAR": 0.00019566238, "MEAN_MOTION_DOT": 0.00040543, "MEAN_MOTION_DDOT": 2.652968e-06}, "tle": {"line1": "1 67132U 25300B   25352.67574779  .00040543  26530-5  19566-3 0  9995", "line2": "2 67132  97.5563  66.9660 0174197   9.3582 351.0851 15.63831828   407"}}, "geometry": {"type": "Point", "coordinates": [83.59059345052391, -51.212184208293785]}}, {"type": "Feature", "properties": {"norad_id": 67133, "name": "KUIPER-00144", "group": "last-30-days", "lat": -47.12769828488728, "lon": 6.674534576896728, "alt_km": 468.4305817806862, "timestamp": "2025-12-25T07:41:08.453147+00:00", "meta": {"OBJECT_NAME": "KUIPER-00144", "OBJECT_ID": "2025-301A", "EPOCH": "2025-12-24T22:00:03.000096", "MEAN_MOTION": 15.35379035, "ECCENTRICITY": 0.00060934, "INCLINATION": 51.87, "RA_OF_ASC_NODE": 66.4129, "ARG_OF_PERICENTER": 118.1173, "MEAN_ANOMALY": 101.26, "EPHEMERIS_TYPE": 0, "CLASSIFICATION_TYPE": "U", "NORAD_CAT_ID": 67133, "ELEMENT_SET_NO": 999, "REV_AT_EPOCH": 164, "BSTAR": 5.8681311e-05, "MEAN_MOTION_DOT": 1.664e-05, "MEAN_MOTION_DDOT": 0}, "tle": {"line1": "1 67133U 25301A   25358.91670139  .00001664  00000+0  58681-4 0  9998", "line2": "2 67133  51.8700  66.4129 0006093 118.1173 101.2600 15.35379035  1643"}}, "geometry": {"type": "Point", "coordinates": [6.674534576896728, -47.12769828488728]}}, {"type": "Feature", "properties": {"norad_id": 67134, "name": "KUIPER-00164", "group": "last-30-days", "lat": -33.77722626557473, "lon": 32.724067888321386, "alt_km": 463.42810928685867, "timestamp": "2025-12-25T07:41:08.453158+00:00", "meta": {"OBJECT_NAME": "KUIPER-00164", "OBJECT_ID": "2025-301B", "EPOCH": "2025-12-24T22:00:03.000096", "MEAN_MOTION": 15.36079056, "ECCENTRICITY": 0.00031424, "INCLINATION": 51.8722, "RA_OF_ASC_NODE": 66.3644, "ARG_OF_PERICENTER": 99.9417, "MEAN_ANOMALY": 142.2339, "EPHEMERIS_TYPE": 0, "CLASSIFICATION_TYPE": "U", "NORAD_CAT_ID": 67134, "ELEMENT_SET_NO": 999, "REV_AT_EPOCH": 241, "BSTAR": 2.927899e-05, "MEAN_MOTION_DOT": 6.59e-06, "MEAN_MOTION_DDOT": 0}, "tle": {"line1": "1 67134U 25301B   25358.91670139  .00000659  00000+0  29279-4 0  9993", "line2": "2 67134  51.8722  66.3644 0003142  99.9417 142.2339 15.36079056  2419"}}, "geometry": {"type": "Point", "coordinates": [32.724067888321386, -33.77722626557473]}}, {"type": "Feature", "properties": {"norad_id": 67135, "name": "KUIPER-00175", "group": "last-30-days", "lat": -22.360656371898592, "lon": 45.52711311062688, "alt_km": 459.35632627866016, "timestamp": "2025-12-25T07:41:08.453168+00:00", "meta": {"OBJECT_NAME": "KUIPER-00175", "OBJECT_ID": "2025-301C", "EPOCH": "2025-12-24T22:00:03.000096", "MEAN_MOTION": 15.3655278, "ECCENTRICITY": 0.00022056, "INCLINATION": 51.874, "RA_OF_ASC_NODE": 66.3262, "ARG_OF_PERICENTER": 56.2483, "MEAN_ANOMALY": 201.316, "EPHEMERIS_TYPE": 0, "CLASSIFICATION_TYPE": "U", "NORAD_CAT_ID": 67135, "ELEMENT_SET_NO": 999, "REV_AT_EPOCH": 230, "BSTAR": 7.7313566e-05, "MEAN_MOTION_DOT": 2.415e-05, "MEAN_MOTION_DDOT": 0}, "tle": {"line1": "1 67135U 25301C   25358.91670139  .00002415  00000+0  77314-4 0  9999", "line2": "2 67135  51.8740  66.3262 0002205  56.2483 201.3160 15.36552780  2301"}}, "geometry": {"type": "Point", "coordinates": [45.52711311062688, -22.360656371898592]}}, {"type": "Feature", "properties": {"norad_id": 67136, "name": "KUIPER-00179", "group": "last-30-days", "lat": -29.396007258422394, "lon": 38.13714107437566, "alt_km": 461.8625423219846, "timestamp": "2025-12-25T07:41:08.453179+00:00", "meta": {"OBJECT_NAME": "KUIPER-00179", "OBJECT_ID": "2025-301D", "EPOCH": "2025-12-24T22:00:03.000096", "MEAN_MOTION": 15.36265901, "ECCENTRICITY": 0.00029439, "INCLINATION": 51.8736, "RA_OF_ASC_NODE": 66.348, "ARG_OF_PERICENTER": 81.3106, "MEAN_ANOMALY": 166.9781, "EPHEMERIS_TYPE": 0, "CLASSIFICATION_TYPE": "U", "NORAD_CAT_ID": 67136, "ELEMENT_SET_NO": 999, "REV_AT_EPOCH": 241, "BSTAR": 4.1519935e-05, "MEAN_MOTION_DOT": 1.104e-05, "MEAN_MOTION_DDOT": 0}, "tle": {"line1": "1 67136U 25301D   25358.91670139  .00001104  00000+0  41520-4 0  9994", "line2": "2 67136  51.8736  66.3480 0002943  81.3106 166.9781 15.36265901  2412"}}, "geometry": {"type": "Point", "coordinates": [38.13714107437566, -29.396007258422394]}}, {"type": "Feature", "properties": {"norad_id": 67137, "name": "KUIPER-00181", "group": "last-30-days", "lat": -50.254190306220046, "lon": -44.585742021532084, "alt_km": 470.42692490585614, "timestamp": "2025-12-25T07:41:08.453191+00:00", "meta": {"OBJECT_NAME": "KUIPER-00181", "OBJECT_ID": "2025-301E", "EPOCH": "2025-12-24T22:00:03.000096", "MEAN_MOTION": 15.34366509, "ECCENTRICITY": 0.00100461, "INCLINATION": 51.8635, "RA_OF_ASC_NODE": 66.48, "ARG_OF_PERICENTER": 140.4405, "MEAN_ANOMALY": 46.9042, "EPHEMERIS_TYPE": 0, "CLASSIFICATION_TYPE": "U", "NORAD_CAT_ID": 67137, "ELEMENT_SET_NO": 999, "REV_AT_EPOCH": 239, "BSTAR": -2.0689513e-05, "MEAN_MOTION_DOT": -1.084e-05, "MEAN_MOTION_DDOT": 0}, "tle": {"line1": "1 67137U 25301E   25358.91670139 -.00001084  00000+0 -20690-4 0  9999", "line2": "2 67137  51.8635  66.4800 0010046 140.4405  46.9042 15.34366509  2398"}}, "geometry": {"type": "Point", "coordinates": [-44.585742021532084, -50.254190306220046]}}, {"type": "Feature", "properties": {"norad_id": 67138, "name": "KUIPER-00183", "group": "last-30-days", "lat": -46.39277558590885, "lon": -59.8616718109839, "alt_km": 469.68150978089125, "timestamp": "2025-12-25T07:41:08.453201+00:00", "meta": {"OBJECT_NAME": "KUIPER-00183", "OBJECT_ID": "2025-301F", "EPOCH": "2025-12-24T22:00:03.000096", "MEAN_MOTION": 15.34028571, "ECCENTRICITY": 0.00112562, "INCLINATION": 51.8609, "RA_OF_ASC_NODE": 66.5009, "ARG_OF_PERICENTER": 145.2146, "MEAN_ANOMALY": 31.7236, "EPHEMERIS_TYPE": 0, "CLASSIFICATION_TYPE": "U", "NORAD_CAT_ID": 67138, "ELEMENT_SET_NO": 999, "REV_AT_EPOCH": 240, "BSTAR": -3.8269232e-05, "MEAN_MOTION_DOT": -1.665e-05, "MEAN_MOTION_DDOT": 0}, "tle": {"line1": "1 67138U 25301F   25358.91670139 -.00001665  00000+0 -38269-4 0  9996", "line2": "2 67138  51.8609  66.5009 0011256 145.2146  31.7236 15.34028571  2404"}}, "geometry": {"type": "Point", "coordinates": [-59.8616718109839, -46.39277558590885]}}, {"type": "Feature", "properties": {"norad_id": 67139, "name": "KUIPER-00184", "group": "last-30-days", "lat": -51.164328966936885, "lon": -38.05190627089892, "alt_km": 470.2239843670586, "timestamp": "2025-12-25T07:41:08.453211+00:00", "meta": {"OBJECT_NAME": "KUIPER-00184", "OBJECT_ID": "2025-301G", "EPOCH": "2025-12-24T22:00:03.000096", "MEAN_MOTION": 15.3446276, "ECCENTRICITY": 0.00089785, "INCLINATION": 51.8622, "RA_OF_ASC_NODE": 66.4717, "ARG_OF_PERICENTER": 140.7085, "MEAN_ANOMALY": 50.7586, "EPHEMERIS_TYPE": 0, "CLASSIFICATION_TYPE": "U", "NORAD_CAT_ID": 67139, "ELEMENT_SET_NO": 999, "REV_AT_EPOCH": 251, "BSTAR": -3.0115731e-05, "MEAN_MOTION_DOT": -1.405e-05, "MEAN_MOTION_DDOT": 0}, "tle": {"line1": "1 67139U 25301G   25358.91670139 -.00001405  00000+0 -30116-4 0  9992", "line2": "2 67139  51.8622  66.4717 0008978 140.7085  50.7586 15.34462760  2517"}}, "geometry": {"type": "Point", "coordinates": [-38.05190627089892, -51.164328966936885]}}, {"type": "Feature", "properties": {"norad_id": 67140, "name": "KUIPER-00186", "group": "last-30-days", "lat": -51.09086586826975, "lon": -12.220295342427626, "alt_km": 470.1060130182814, "timestamp": "2025-12-25T07:41:08.453223+00:00", "meta": {"OBJECT_NAME": "KUIPER-00186", "OBJECT_ID": "2025-301H", "EPOCH": "2025-12-24T22:00:03.000096", "MEAN_MOTION": 15.34953429, "ECCENTRICITY": 0.00075535, "INCLINATION": 51.8679, "RA_OF_ASC_NODE": 66.4394, "ARG_OF_PERICENTER": 128.2971, "MEAN_ANOMALY": 78.6798, "EPHEMERIS_TYPE": 0, "CLASSIFICATION_TYPE": "U", "NORAD_CAT_ID": 67140, "ELEMENT_SET_NO": 999, "REV_AT_EPOCH": 130, "BSTAR": -3.8692836e-05, "MEAN_MOTION_DOT": -1.717e-05, "MEAN_MOTION_DDOT": 0}, "tle": {"line1": "1 67140U 25301H   25358.91670139 -.00001717  00000+0 -38693-4 0  9998", "line2": "2 67140  51.8679  66.4394 0007553 128.2971  78.6798 15.34953429  1302"}}, "geometry": {"type": "Point", "coordinates": [-12.220295342427626, -51.09086586826975]}}]}